{"type":"FeatureCollection","features":[{"type":"Feature","properties":{"NAMOBJ":"Tambusai Utara","WADMKC":"Tambusai Utara","WADMKK":"Rokan Hulu","KDCBPS":null,"KDCPUM":"14.06.09"},"geometry":{"coordinates":[[[100.33116122065417,1.4316003503617196],[100.3242024,1.4279906],[100.3156246,1.4257414],[100.3108435,1.4219458],[100.3076093,1.4168851],[100.2965003,1.4180097],[100.2889068,1.4232111],[100.2839849,1.4250119],[100.2647391,1.4225179],[100.2483445,1.412898],[100.2212579,1.4114728],[100.2002004,1.3986343],[100.1356914,1.4039788],[100.1164457,1.3961402],[100.0954209,1.4001932],[100.0684638,1.3988721],[100.0421384,1.3928301],[100.0350264,1.3861468],[100.0294736,1.3780307],[100.0247796,1.354141],[100.0247796,1.3514392],[100.0256331,1.3429071],[100.0250641,1.3342328],[100.0304692,1.324847],[100.0364433,1.3184478],[100.0438399,1.316457],[100.049814,1.3138973],[100.0562148,1.3040853],[100.0587751,1.2975439],[100.0650337,1.2891538],[100.0748483,1.2753599],[100.0958999,1.2698139],[100.1008784,1.2706672],[100.10919494178017,1.2670128428905372],[100.1131529,1.2615503],[100.1199805,1.2557198],[100.1226831,1.2493205],[100.1209761,1.2436874],[100.119127,1.2347284],[100.119696,1.2246316],[100.1177046,1.2166679],[100.1205494,1.2132549],[100.1202268,1.2120523],[100.122692,1.2104092],[100.1245861,1.2065644],[100.1244817,1.2023913],[100.1220817,1.1997832],[100.1216643,1.1966534],[100.126047,1.1909155],[100.1301166,1.1858035],[100.1299079,1.183404],[100.1326068,1.1800236],[100.1675109,1.1986073],[100.1689825,1.2008883],[100.175121,1.2023731],[100.1810307,1.2124917],[100.1873625,1.2139424],[100.1914518,1.2185583],[100.2046774,1.2327804],[100.2063038,1.248506],[100.2154193,1.2520189],[100.2267413,1.2583107],[100.2334869,1.2560627],[100.2360594,1.2329299],[100.2507257,1.2265888],[100.2626198,1.2057983],[100.2599253,1.1994483],[100.2626198,1.1927134],[100.2720507,1.1863634],[100.2834544,1.192119],[100.3081826,1.183513],[100.3344662,1.1772233],[100.3723666,1.1624252],[100.3941392,1.1587972],[100.4100151,1.143378],[100.4238498,1.1372557],[100.4405495,1.1421624],[100.4599722,1.1418725],[100.5045127,1.1545205],[100.5224618,1.1521708],[100.5413008,1.1578355],[100.57363,1.1811196],[100.5848748,1.1818493],[100.5908732,1.1859273],[100.6053891,1.2013996],[100.6254164,1.2288779],[100.6179158,1.2238786],[100.6023374,1.2311853],[100.5906056,1.2417607],[100.522395,1.2857851],[100.4803833,1.3218917],[100.4676197,1.3226892],[100.4574189,1.32581],[100.44439200484624,1.3342121637153923],[100.454009,1.3386978],[100.4580898,1.3382178],[100.4580898,1.3422975],[100.4126012,1.3811696],[100.3801952,1.3924484],[100.3557106,1.4183654],[100.33116122065417,1.4316003503617196]]],"type":"Polygon"},"id":0},{"type":"Feature","properties":{"NAMOBJ":"Tambusai","WADMKC":"Tambusai","WADMKK":"Rokan Hulu","KDCBPS":null,"KDCPUM":"14.06.04"},"geometry":{"type":"Polygon","coordinates":[[[100.4351113,1.1402481],[100.4238488244383,1.1372561317174532],[100.41099467937096,1.1429445046019895],[100.3936299003375,1.1588820653433924],[100.37138511639581,1.1628084173940936],[100.3342386931323,1.1772777426922385],[100.30947038730304,1.1832048308070455],[100.28377470762352,1.1920075253512974],[100.27315914725506,1.1869228481634246],[100.26494629608248,1.1911469270097454],[100.26252416327011,1.192952443908748],[100.26025695276549,1.1986193342511664],[100.2624807304496,1.2054705614046972],[100.2507257,1.2265888],[100.23633847450327,1.2328092397562664],[100.23354331633561,1.25555538501126],[100.22775517657993,1.2579728213010415],[100.2063038,1.248506],[100.20482894242689,1.2342456579859586],[100.20364796413881,1.2316733999575582],[100.19755150808295,1.2251175985064306],[100.18729143770359,1.2139261186781938],[100.1810307,1.2124917],[100.17567097170078,1.2033147626311775],[100.1689825,1.2008883],[100.16703233506418,1.1983525016468624],[100.1326068,1.1800236],[100.1355857,1.1676033],[100.1433956,1.1590131],[100.1493012,1.1581222],[100.1527311,1.1573247],[100.1591179,1.1523623],[100.1618299,1.1490926],[100.1639038,1.1440685],[100.1635137,1.1393837],[100.1647256,1.1362333],[100.1669802,1.1334439],[100.1726756,1.1334192],[100.1741787,1.1312566],[100.1756085,1.129827],[100.17785,1.1265134],[100.1790101,1.1268566],[100.1796912,1.1266377],[100.1800561,1.1261512],[100.1800075,1.1256891],[100.1803967,1.1251297],[100.1813212,1.1246432],[100.1825862,1.1254702],[100.1834377,1.125154],[100.1840398,1.1242695],[100.1830711,1.1229079],[100.1830225,1.1207675],[100.1812164,1.1204333],[100.1800942,1.1197819],[100.1795411,1.1177123],[100.1782277,1.1175334],[100.1767771,1.1178425],[100.1761589,1.1186746],[100.1748747,1.1197208],[100.1748272,1.120648],[100.1733766,1.1208858],[100.1722114,1.1219794],[100.1714267,1.122027],[100.1707133,1.1226689],[100.1692751,1.1225304],[100.1684511,1.1213898],[100.1663597,1.1206611],[100.1659477,1.1200592],[100.16449,1.1198374],[100.1642579,1.1185958],[100.1621664,1.1181205],[100.1608038,1.1195463],[100.1600433,1.1197681],[100.1594729,1.1189443],[100.1576374,1.1195571],[100.1538178,1.1197774],[100.1506592,1.1192633],[100.1473632,1.1186819],[100.141613,1.1171005],[100.1346699,1.1120603],[100.1331263,1.1099933],[100.1286242,1.1043886],[100.1277931,1.1027936],[100.1270178,1.1010127],[100.1253949,1.0975846],[100.1232573,1.0941956],[100.1227811,1.0926549],[100.1223717,1.0913257],[100.1222615,1.0900303],[100.1225511,1.0875912],[100.1218971,1.0848018],[100.1214963,1.0820581],[100.1219374,1.0810659],[100.1225137,1.0773338],[100.1209976,1.0755148],[100.1209275,1.0735272],[100.1213961,1.0723421],[100.121396,1.0711569],[100.1210981,1.0683165],[100.1222231,1.0668554],[100.1235711,1.0630026],[100.1242602,1.0617623],[100.1253904,1.060274],[100.1257641,1.058436],[100.1279601,1.0569311],[100.1283185,1.0569311],[100.1289525,1.0553877],[100.1294538,1.0549299],[100.1302756,1.0548089],[100.1325361,1.0567933],[100.1343554,1.0577855],[100.1353202,1.0583092],[100.1362575,1.0590533],[100.1370326,1.0605968],[100.1386039,1.0614788],[100.1401347,1.0606648],[100.140879,1.0593418],[100.1413751,1.0580189],[100.1411923,1.0568364],[100.1411164,1.0534202],[100.1410784,1.0499951],[100.1409645,1.0471863],[100.1399352,1.0442085],[100.1386825,1.0395376],[100.1389314,1.0360545],[100.139336,1.0335693],[100.1396699,1.0308801],[100.140716,1.0281317],[100.1427787,1.0238392],[100.1444994,1.0193628],[100.1449615,1.0185981],[100.1459493,1.0171325],[100.149249,1.0122708],[100.1508039,1.0113155],[100.1515765,1.0108941],[100.1524237,1.0107081],[100.1536036,1.0109749],[100.1547695,1.010694],[100.1563755,1.0099278],[100.1578136,1.0094867],[100.1590356,1.0088968],[100.1597717,1.008319],[100.160709,1.0073219],[100.1607877,1.0066409],[100.1615051,1.0059179],[100.1620697,1.005713],[100.1634604,1.0048984],[100.164261,1.0045754],[100.1649704,1.0038215],[100.1654602,1.0028828],[100.1655164,1.0018435],[100.1660638,1.0006092],[100.1665614,0.9994219],[100.1666016,0.9983507],[100.1664141,0.9979623],[100.165932,0.9976276],[100.164941,0.9975874],[100.1637893,0.9977749],[100.1625036,0.9990202],[100.1619143,0.9993817],[100.1614829,0.9994996],[100.160776,0.9988595],[100.1600499,0.9980535],[100.1597017,0.9971429],[100.1594472,0.9956299],[100.1590546,0.9950155],[100.1584788,0.994654],[100.1569685,0.994532],[100.1564408,0.9941333],[100.156085,0.9935603],[100.1558708,0.9932873],[100.1555896,0.99235],[100.1556565,0.992042],[100.1541411,0.9908216],[100.1534203,0.9910748],[100.1508412,0.9894512],[100.1501567,0.9891882],[100.1495039,0.9880186],[100.1475935,0.9880186],[100.1462562,0.9853444],[100.1452194,0.9852251],[100.1437459,0.9861156],[100.1422443,0.9844848],[100.1395024,0.9843728],[100.1400974,0.9813178],[100.1410474,0.9793107],[100.1421369,0.9778325],[100.1435949,0.9768373],[100.1469697,0.9750128],[100.1466387,0.9736187],[100.146463,0.9720126],[100.1467391,0.9700805],[100.1475924,0.9677718],[100.1479031,0.9663855],[100.1476019,0.9655574],[100.1470697,0.9648019],[100.1458779,0.9638178],[100.1452675,0.9630912],[100.1446183,0.9617525],[100.1444691,0.9600574],[100.1444235,0.9583239],[100.144536,0.9566511],[100.1441453,0.9549836],[100.1435273,0.9539419],[100.1426604,0.9530751],[100.1412689,0.9522312],[100.1396035,0.9521171],[100.1378238,0.9513769],[100.1366376,0.9513769],[100.1360901,0.9509891],[100.135611,0.9503276],[100.132962,0.9496875],[100.1322549,0.9491629],[100.1314681,0.9478389],[100.1312106,0.9466376],[100.1336992,0.9467234],[100.138805,0.9480534],[100.144297,0.948225],[100.1479138,0.9477539],[100.151348,0.948311],[100.1512354,0.9521706],[100.1517356,0.9541061],[100.1529764,0.9554956],[100.1537667,0.9582747],[100.1571934,0.9585668],[100.1602685,0.9601041],[100.1646637,0.9654404],[100.1672985,0.9665562],[100.168007,0.9683778],[100.1710434,0.9705029],[100.1761041,0.9729317],[100.181261,0.974204],[100.1838976,0.9734377],[100.1861243,0.9700981],[100.1925008,0.9643298],[100.1959783,0.9642362],[100.210975,0.982476],[100.228545,0.979732],[100.2432421,0.9832201],[100.2541322,0.9883953],[100.2794782,1.0001856],[100.2853935,1.0007323],[100.2883503,1.0040828],[100.2922482,1.0129026],[100.2956864,1.0147773],[100.2973129,1.0176471],[100.3122076,1.0293423],[100.3189724,1.0305351],[100.3252161,1.0290218],[100.3344869,1.0299676],[100.343001,1.0328052],[100.3796657,1.0419462],[100.3832605,1.0387303],[100.3858439,1.0368893],[100.393213,1.030835],[100.3930205,1.0295798],[100.3933201,1.0273326],[100.3934607,1.0249657],[100.3951089,1.0245662],[100.3958581,1.0251654],[100.3968071,1.0253652],[100.39744,1.026491],[100.3980738,1.0268482],[100.3984422,1.0270938],[100.3989642,1.0278613],[100.3995476,1.028813],[100.39958,1.034451],[100.401521,1.03475],[100.4023155,1.0284593],[100.402795,1.026773],[100.412512,1.022339],[100.415024,1.0216844],[100.4158848,1.0213258],[100.4172478,1.0210389],[100.420915,1.0224548],[100.4241523,1.028093],[100.4250063,1.0768003],[100.4250063,1.0768003],[100.4247504,1.0768003],[100.4351113,1.1402481]]]},"id":1},{"type":"Feature","properties":{"NAMOBJ":"Kepenuhan","WADMKC":"Kepenuhan","WADMKK":"Rokan Hulu","KDCBPS":null,"KDCPUM":"14.06.05"},"geometry":{"type":"Polygon","coordinates":[[[100.449033,1.1419173],[100.4591506,1.1413856],[100.4764844,1.1463635],[100.5039603,1.1543833],[100.5228127,1.1516812],[100.5411351,1.1573953],[100.5739753,1.1806932],[100.5850696,1.1822057],[100.5916253,1.1869114],[100.6044006,1.20002],[100.6253353,1.2290572],[100.634894,1.2421972],[100.6366863,1.2491654],[100.6412665,1.2533464],[100.6474398,1.2658891],[100.6536131,1.2852008],[100.6580762,1.2928255],[100.6631608,1.2947806],[100.6683494,1.2911734],[100.6925616,1.2511613],[100.695787,1.246401],[100.7003948,1.2447119],[100.7180674,1.245537],[100.7320444,1.2436943],[100.7461749,1.2436944],[100.7572336,1.241391],[100.7844196,1.2444622],[100.7924022,1.2472684],[100.7893345,1.2421588],[100.7559736,1.2204677],[100.7341106,1.195354],[100.6282998,0.9910841],[100.5285181,1.0486465],[100.4953235,1.0779707],[100.449033,1.1419173]]]},"id":2},{"type":"Feature","properties":{"NAMOBJ":"Bonai Darussalam","WADMKC":"Bonai Darussalam","WADMKK":"Rokan Hulu","KDCBPS":null,"KDCPUM":"14.06.13"},"geometry":{"type":"Polygon","coordinates":[[[100.6679882,1.0676035],[100.670589,1.072672],[100.6738951,1.0789746],[100.7211517,1.1710326],[100.7342994,1.1957829],[100.7566288,1.2210191],[100.7904141,1.2427608],[100.7956913,1.2562519],[100.8019841,1.2700328],[100.8130714,1.3026871],[100.8360848,1.3369309],[100.8534649,1.3522092],[100.8730981,1.3637434],[100.8937935,1.3789283],[100.92702,1.3937335],[100.9326788,1.3991828],[100.9347425,1.3964321],[100.9385833,1.3958017],[100.942596,1.3963174],[100.9459782,1.3978074],[100.949131,1.399584],[100.9525132,1.3996413],[100.9548789,1.4049753],[100.9536115,1.3986401],[100.9545171,1.3975685],[100.9543961,1.3962386],[100.951917,1.3932767],[100.9499821,1.3898916],[100.9507077,1.387655],[100.9530659,1.3862043],[100.9562101,1.3852371],[100.906509,1.0286299],[100.8405693,0.9609201],[100.7993538,0.9975042],[100.7594236,1.0192884],[100.7348491,1.0365664],[100.7011388,1.051384],[100.6679882,1.0676035]]]},"id":3},{"type":"Feature","properties":{"NAMOBJ":"Bangun Purba","WADMKC":"Bangun Purba","WADMKK":"Rokan Hulu","KDCBPS":null,"KDCPUM":"14.06.10"},"geometry":{"type":"Polygon","coordinates":[[[100.2378214,0.9820519],[100.265622,0.940614],[100.260439,0.902672],[100.250258,0.868432],[100.2471829,0.8654981],[100.2430412,0.8657001],[100.2399096,0.8676193],[100.236172,0.8705484],[100.2345557,0.8684273],[100.2323333,0.8747907],[100.2268784,0.8733766],[100.2243529,0.8732756],[100.222493,0.87491],[100.212723,0.867053],[100.207666,0.866725],[100.181297,0.845806],[100.1373977,0.8441879],[100.1341262,0.8656099],[100.1371324,0.8808058],[100.1419756,0.8816408],[100.1424766,0.8854815],[100.1399715,0.8928517],[100.1413075,0.8996982],[100.1356293,0.9042068],[100.1321221,0.9108863],[100.1344601,0.9190686],[100.1359631,0.9254141],[100.131955,0.9280858],[100.1289488,0.9322605],[100.1289622,0.9395678],[100.1310215,0.9466506],[100.1391496,0.948084],[100.1444939,0.948251],[100.1514329,0.948357],[100.1512976,0.9526943],[100.1520906,0.954379],[100.1530817,0.9558656],[100.1537934,0.9581541],[100.1572911,0.9585273],[100.1602282,0.9600282],[100.1620557,0.961986],[100.1644706,0.9652489],[100.1673653,0.9664885],[100.1680047,0.9683665],[100.170962,0.9704843],[100.1757976,0.9728818],[100.1812724,0.9741849],[100.1838261,0.9734111],[100.1862639,0.9699748],[100.1924828,0.9641832],[100.196125,0.9641699],[100.2109262,0.9824556],[100.228139,0.9797273],[100.2378214,0.9820519]]]},"id":4},{"type":"Feature","properties":{"NAMOBJ":"Kunto Darussalam","WADMKC":"Kunto Darussalam","WADMKK":"Rokan Hulu","KDCBPS":null,"KDCPUM":"14.06.16"},"geometry":{"type":"Polygon","coordinates":[[[100.66826709382445,1.067467046409846],[100.6284039,0.9922028],[100.625477,0.948458],[100.572313,0.90274],[100.5553592,0.9114179],[100.5411841,0.9081357],[100.536757,0.899291],[100.548255,0.87676],[100.560867,0.868057],[100.554075,0.858826],[100.543458,0.86509],[100.537062,0.864562],[100.5385136,0.862198],[100.543063,0.853288],[100.545596,0.840518],[100.540944,0.813773],[100.5657413,0.8057353],[100.5927731,0.8072369],[100.6040865,0.8102401],[100.6081913,0.8062358],[100.6123962,0.8078375],[100.6165131,0.8159268],[100.6166132,0.8238353],[100.6304294,0.8239354],[100.6352351,0.8338461],[100.6429442,0.8247363],[100.6488511,0.8266384],[100.6660714,0.8168278],[100.691636,0.803987],[100.700178,0.810745],[100.691448,0.821632],[100.691542,0.821632],[100.70337,0.832332],[100.724302,0.841436],[100.728151,0.833271],[100.744447,0.848455],[100.7556611,0.8503583],[100.7618427,0.8585761],[100.7655657,0.8606832],[100.7694292,0.8641249],[100.7737141,0.8684093],[100.771508,0.865666],[100.84014698399315,0.9612949602109961],[100.7978348,0.9983002],[100.765911,1.0161285],[100.7349683,1.0369899],[100.7138876,1.0458195],[100.66826709382445,1.067467046409846]]]},"id":5},{"type":"Feature","properties":{"NAMOBJ":"Rambah","WADMKC":"Rambah","WADMKK":"Rokan Hulu","KDCBPS":null,"KDCPUM":"14.06.03"},"geometry":{"type":"Polygon","coordinates":[[[100.2504553,0.8680506],[100.2471829,0.8654981],[100.24296045847444,0.8657495824166008],[100.23625882942187,0.8704803531090487],[100.23476735942955,0.8687050645338221],[100.23246908494917,0.874401906827941],[100.22523381136523,0.8733108294784748],[100.22271993209603,0.8747105818496947],[100.212723,0.867053],[100.20771998549515,0.8667285015310274],[100.18090743595002,0.8457916409193477],[100.1373977,0.8441879],[100.1301164,0.8432889],[100.1278303,0.8471882],[100.1237961,0.8466504],[100.1228548,0.8424821],[100.1230981,0.8391163],[100.119224,0.8348179],[100.1205687,0.8321287],[100.1197619,0.8299773],[100.1200308,0.8267503],[100.1220479,0.8236577],[100.1236185,0.815863],[100.1294452,0.811153],[100.1380378,0.7998036],[100.1592401,0.783147],[100.1656115,0.7802512],[100.1783542,0.7646138],[100.1930618,0.7631457],[100.2000124,0.7443229],[100.2081792,0.7367301],[100.2128808,0.7354078],[100.2185473,0.7425854],[100.2228717,0.7389338],[100.2315403,0.7373177],[100.2396882,0.7334479],[100.241605,0.7359488],[100.2426264,0.7373446],[100.242598,0.73843],[100.248197,0.733823],[100.253442,0.73354],[100.258842,0.7346748],[100.2632319,0.7391974],[100.2662916,0.7439861],[100.2752046,0.7516781],[100.2789294,0.7554026],[100.282743,0.760901],[100.2864745,0.7614621],[100.288008,0.7664803],[100.293991,0.771155],[100.3037609,0.7731712],[100.310742,0.777042],[100.3141548,0.7677658],[100.318162,0.764477],[100.317324,0.753468],[100.320212,0.750278],[100.361764,0.816697],[100.361593,0.8234388],[100.3577223,0.8287023],[100.3512197,0.8347398],[100.3476588,0.8410869],[100.342739,0.846659],[100.364005,0.886675],[100.384486,0.913852],[100.3678265,0.9109885],[100.3518327,0.9149317],[100.3369372,0.9159998],[100.323137,0.921105],[100.26139206585188,0.9096488907103473],[100.26140292700966,0.9097283994983564],[100.26139106510183,0.9096415647488859],[100.261425,0.909655],[100.26063623676518,0.9041158659741478],[100.25941998516875,0.8992449233059604],[100.25636999563834,0.8889874199643198],[100.2504553,0.8680506]]]},"id":6},{"type":"Feature","properties":{"NAMOBJ":"Pagaran Tapah Darussalam","WADMKC":"Pagaran Tapah Darussalam","WADMKK":"Rokan Hulu","KDCBPS":null,"KDCPUM":"14.06.14"},"geometry":{"type":"Polygon","coordinates":[[[100.593816,0.70041],[100.554251,0.723655],[100.532204,0.742407],[100.519324,0.760091],[100.526718,0.761734],[100.540944,0.813773],[100.56568915237509,0.8057522029275291],[100.58089621546833,0.8065771463094299],[100.58811625558964,0.8069782151337832],[100.59524472418933,0.8078930053056915],[100.60405986520546,0.8102330296573115],[100.60844531458916,0.806332557394342],[100.6123962,0.8078375],[100.61636774451533,0.8156411908955276],[100.61662432495571,0.8238353806016174],[100.6304294,0.8239354],[100.63519391131953,0.8337611573994314],[100.6429442,0.8247363],[100.64837808460545,0.8264860827808229],[100.691636,0.803987],[100.678607,0.7804838],[100.65634,0.745865],[100.595326,0.704185],[100.593816,0.70041]]]},"id":7},{"type":"Feature","properties":{"NAMOBJ":"Tandun","WADMKC":"Tandun","WADMKK":"Rokan Hulu","KDCBPS":null,"KDCPUM":"14.06.08"},"geometry":{"type":"Polygon","coordinates":[[[100.593816,0.70041],[100.5926534,0.6932624],[100.5902949,0.688346],[100.5902392,0.6860913],[100.5886397,0.6824447],[100.5869762,0.6795018],[100.5827423,0.6722371],[100.5768934,0.6672808],[100.5724324,0.6638114],[100.5704682,0.654139],[100.5657483,0.6458437],[100.5593854,0.6375159],[100.5541226,0.6354918],[100.5514339,0.6328032],[100.549833,0.633251],[100.523733,0.602074],[100.5250686,0.5975409],[100.5280986,0.5922026],[100.5335815,0.5829688],[100.5442587,0.5643568],[100.564831,0.527478],[100.5660004,0.5288242],[100.5681123,0.5300209],[100.571536,0.532119],[100.5800796,0.528613],[100.5886125,0.5256375],[100.596639,0.5175473],[100.6074026,0.510535],[100.628787,0.481885],[100.6316595,0.4848094],[100.6323798,0.4882052],[100.630872,0.492977],[100.6281607,0.4969519],[100.6253822,0.5003477],[100.620271,0.507923],[100.66784,0.544399],[100.6765051,0.5446668],[100.6915337,0.5584763],[100.7135417,0.5734381],[100.7056331,0.5804337],[100.7028955,0.5821066],[100.6997017,0.582867],[100.6966599,0.5840837],[100.6922494,0.584692],[100.6878388,0.5842357],[100.6840366,0.584692],[100.6806907,0.5865169],[100.6796261,0.5916877],[100.6793219,0.5976188],[100.6714134,0.6044624],[100.6668507,0.6067435],[100.6630485,0.6137392],[100.6625923,0.619062],[100.6592463,0.6237764],[100.6537991,0.6324954],[100.6413279,0.6373619],[100.6334193,0.6416201],[100.6249024,0.6481595],[100.6162643,0.6603309],[100.6079937,0.6708565],[100.6042343,0.6838881],[100.593816,0.70041]]]},"id":8},{"type":"Feature","properties":{"NAMOBJ":"Rokan IV Koto","WADMKC":"Rokan IV Koto","WADMKK":"Rokan Hulu","KDCBPS":null,"KDCPUM":"14.06.02"},"geometry":{"type":"Polygon","coordinates":[[[100.3107246,0.7769665],[100.3022847,0.77237],[100.2930999,0.7709006],[100.2886912,0.7683291],[100.2864868,0.7624514],[100.2828129,0.7617166],[100.2681172,0.7462875],[100.253789,0.7337972],[100.2431346,0.7378382],[100.2376237,0.7352667],[100.2431008,0.6998567],[100.2373944,0.672142],[100.2161764,0.6623603],[100.2013542,0.6408882],[100.1874959,0.6262156],[100.1803129,0.5994275],[100.1770521,0.5733426],[100.1835736,0.5631532],[100.1955198,0.5573825],[100.2065249,0.5573825],[100.2163073,0.5581977],[100.2293504,0.5516764],[100.2375024,0.5402642],[100.2362796,0.534558],[100.2285352,0.5247761],[100.2163073,0.5202927],[100.2163073,0.5101032],[100.2228739,0.501046],[100.2412158,0.4916716],[100.2383626,0.476591],[100.2477374,0.4602876],[100.2526285,0.4521359],[100.2615957,0.4443918],[100.2564422,0.4449354],[100.2546662,0.4410908],[100.2593312,0.4315106],[100.2671484,0.4235237],[100.2685245,0.4198963],[100.281141,0.4062897],[100.286749,0.4037407],[100.2909424,0.3987017],[100.294906,0.400342],[100.3001742,0.3962635],[100.3139392,0.3983027],[100.3200856,0.4020321],[100.3330841,0.3940121],[100.3456596,0.3843258],[100.3650326,0.3901035],[100.3652026,0.3948617],[100.3677517,0.3946918],[100.3714903,0.3909532],[100.3759087,0.3890839],[100.3895598,0.3987596],[100.402985,0.405557],[100.4098453,0.4144191],[100.4171527,0.4169681],[100.4197018,0.4234256],[100.4079927,0.4751095],[100.4346631,0.4970938],[100.464599,0.52701],[100.450132,0.543887],[100.48003,0.54629],[100.4802838,0.5582925],[100.4727152,0.5763122],[100.4770401,0.6026208],[100.5224519,0.6026208],[100.509762,0.631213],[100.4548192,0.7435408],[100.449729,0.743603],[100.432401,0.734579],[100.419405,0.722668],[100.425903,0.710395],[100.4212067,0.7064933],[100.415796,0.706424],[100.4110234,0.7060084],[100.4061742,0.7079479],[100.3971224,0.7116653],[100.3895253,0.7150595],[100.383383,0.7215246],[100.378253,0.722307],[100.3743312,0.7150595],[100.3670574,0.7142514],[100.3618773,0.7095061],[100.3583288,0.7100491],[100.3565508,0.714413],[100.35154,0.7195851],[100.3410334,0.7297676],[100.3202075,0.7506595],[100.3172479,0.7537197],[100.3183424,0.764357],[100.3138983,0.7677907],[100.3107246,0.7769665]]]},"id":9},{"type":"Feature","properties":{"NAMOBJ":"Ujung Batu","WADMKC":"Ujung Batu","WADMKK":"Rokan Hulu","KDCBPS":null,"KDCPUM":"14.06.01"},"geometry":{"type":"Polygon","coordinates":[[[100.4544637,0.7436282],[100.52328671138184,0.602459064451482],[100.54968016423534,0.6330684344584263],[100.55168699704349,0.63305628763012],[100.55558925339123,0.6360558824521539],[100.5593854,0.6375159],[100.5704682,0.654139],[100.57231368068425,0.6632267850373372],[100.58329582645699,0.6731868634927828],[100.5902392,0.6860913],[100.590730504209,0.6892540366898979],[100.59215950915257,0.6922328621741155],[100.59411979546171,0.7000891190883122],[100.58413503041167,0.7060977072685601],[100.5676744278559,0.7157685452922853],[100.55477024675672,0.7233499351482342],[100.54216834873715,0.733931857462735],[100.53290299942704,0.741812468442144],[100.5245832960719,0.7528700844925773],[100.519324,0.760091],[100.475603,0.750898],[100.456302,0.757142],[100.448354,0.744087],[100.4544637,0.7436282]]]},"id":10},{"type":"Feature","properties":{"NAMOBJ":"Rambah Hilir","WADMKC":"Rambah Hilir","WADMKK":"Rokan Hulu","KDCBPS":null,"KDCPUM":"14.06.08"},"geometry":{"type":"Polygon","coordinates":[[[100.4132089,1.0218979],[100.4025941,1.0270811],[100.4017362,1.0347081],[100.3991867,1.0347081],[100.399733,1.02961],[100.3973656,1.0259684],[100.3951804,1.0250581],[100.3937235,1.0257864],[100.3929951,1.0303383],[100.3818866,1.0405346],[100.3795192,1.0419912],[100.3438264,1.0332515],[100.3372706,1.0317949],[100.3298042,1.0294279],[100.3232484,1.0288817],[100.31906,1.0303383],[100.3123683,1.0298982],[100.2972535,1.0180632],[100.2956145,1.0151499],[100.2934293,1.0136933],[100.2925187,1.0133292],[100.2892408,1.005864],[100.2857808,1.0009478],[100.2794071,0.9998554],[100.2618464,0.9923977],[100.2456389,0.9843862],[100.2379904,0.9818371],[100.2436357,0.9729152],[100.25302,0.9595588],[100.265039,0.9415328],[100.2659495,0.939712],[100.2634,0.9231425],[100.2610497,0.9092671],[100.275457,0.9119851],[100.2991066,0.9168775],[100.3231639,0.9210904],[100.3342176,0.9170632],[100.3519998,0.9148995],[100.3682594,0.9111478],[100.3841021,0.913649],[100.442109,0.928422],[100.440049,0.943869],[100.453095,0.949018],[100.4616438,0.9477741],[100.478845,0.960346],[100.4788746,0.9688309],[100.484681,0.978196],[100.4675233,0.987643],[100.459226,0.9989019],[100.452409,1.01527],[100.4443136,1.0185044],[100.432839,1.016299],[100.4132089,1.0218979]]]},"id":11},{"type":"Feature","properties":{"NAMOBJ":"Kabun","WADMKC":"Kabun","WADMKK":"Rokan Hulu","KDCBPS":null,"KDCPUM":"14.06.12"},"geometry":{"type":"Polygon","coordinates":[[[100.7138605,0.5736142],[100.6938512245524,0.560047615859054],[100.6900007322854,0.5570676845830744],[100.6851642,0.5521332],[100.67601343895632,0.5446516049269485],[100.66825133943587,0.5444117126866311],[100.65893386313614,0.5375697572526998],[100.64575954005524,0.5274676611670364],[100.62058553916182,0.5081641892296741],[100.62458609754258,0.501527601969362],[100.62894503052708,0.49580203262563993],[100.630872,0.492977],[100.63230995012795,0.4884262569169845],[100.63166704171839,0.4848449548622841],[100.62871592439963,0.4819802243668608],[100.6385059,0.4689459],[100.6496275,0.4597269],[100.6612288,0.446783],[100.6667074,0.4377827],[100.6699946,0.4366087],[100.6728122,0.4342608],[100.6849278,0.4242921],[100.6898399,0.4173119],[100.6963884,0.4134398],[100.7004184,0.4121171],[100.7028334,0.4082234],[100.7091674,0.4051211],[100.7110001,0.4029076],[100.7137049,0.4010635],[100.7174823,0.3956978],[100.7231378,0.3913334],[100.7267646,0.3894278],[100.7274847,0.3865019],[100.7294556,0.3839936],[100.7328598,0.3835457],[100.7356542,0.3787596],[100.7405086,0.3753913],[100.7464527,0.3765801],[100.7549432,0.3814893],[100.7600335,0.386539],[100.77248,0.389766],[100.7700431,0.381841],[100.7772014,0.3771732],[100.774038,0.3760319],[100.7819777,0.3723069],[100.7910075,0.361881],[100.802494,0.355127],[100.8035257,0.3548858],[100.8040083,0.3547581],[100.8043631,0.35446],[100.8049167,0.3536368],[100.8057541,0.3534949],[100.8064921,0.3542755],[100.810544,0.353339],[100.8224526,0.3662935],[100.838989,0.376774],[100.8395884,0.3818852],[100.8383534,0.3869795],[100.8409778,0.4002557],[100.842764,0.4246372],[100.8418378,0.4288053],[100.8421465,0.4354433],[100.8419921,0.4510349],[100.840294,0.4564379],[100.8406027,0.4636934],[100.83881,0.475701],[100.8250295,0.4917438],[100.818928,0.510683],[100.8131272,0.5214768],[100.8061042,0.5293379],[100.8022259,0.5325872],[100.8003391,0.5375135],[100.793227,0.544811],[100.7909681,0.5432636],[100.7897379,0.5406496],[100.7861244,0.5370362],[100.7811269,0.5312701],[100.776635,0.528546],[100.7725927,0.528118],[100.7689022,0.5319621],[100.7609063,0.5393426],[100.7558319,0.5421104],[100.7530641,0.5456469],[100.7449532,0.5506534],[100.7396862,0.5585629],[100.734458,0.5616381],[100.7269234,0.5614843],[100.7197535,0.565242],[100.7138605,0.5736142]]]},"id":12},{"type":"Feature","properties":{"NAMOBJ":"Pendalian IV Koto","WADMKC":"Pendalian IV Koto","WADMKK":"Rokan Hulu","KDCBPS":null,"KDCPUM":"14.06.16"},"geometry":{"type":"Polygon","coordinates":[[[100.5647725,0.5274749],[100.5605502,0.5238877],[100.5554887,0.5173081],[100.5473967,0.5127773],[100.5394684,0.5089228],[100.5342305,0.5026304],[100.5305681,0.4941331],[100.522584,0.4801287],[100.511782,0.458343],[100.5020463,0.4540505],[100.4931911,0.4547496],[100.4857342,0.4514873],[100.4831708,0.4458947],[100.4750148,0.4361077],[100.4652275,0.4335445],[100.4615646,0.4286607],[100.4574133,0.4235328],[100.4483781,0.418649],[100.4486223,0.4149862],[100.4379774,0.4133977],[100.4346608,0.4180231],[100.4336436,0.4201498],[100.4311469,0.4215368],[100.4255988,0.4235711],[100.4221774,0.4244033],[100.4197699,0.4233752],[100.408406,0.474692],[100.4291577,0.4911135],[100.465118,0.527484],[100.450757,0.543492],[100.480643,0.545713],[100.4804256,0.5560106],[100.4737865,0.5744331],[100.4777279,0.6016679],[100.52383014633993,0.6021900433501978],[100.52497454542318,0.5978601264167311],[100.52721852431259,0.5937531307069702],[100.53175619602298,0.5860428104439219],[100.540768331632,0.570441048310908],[100.5647725,0.5274749]]]},"id":13},{"type":"Feature","properties":{"NAMOBJ":"Kepenuhan Hulu","WADMKC":"Kepenuhan Hulu","WADMKK":"Rokan Hulu","KDCBPS":null,"KDCPUM":"14.06.15"},"geometry":{"type":"Polygon","coordinates":[[[100.5370982,0.8647657],[100.5430343,0.864812],[100.5545192,0.8584593],[100.5606283,0.8672553],[100.5484102,0.87654],[100.5361921,0.8987742],[100.5410794,0.9078144],[100.5559854,0.9114794],[100.572602,0.9029278],[100.6251396,0.9483731],[100.6287129,0.9906475],[100.5340372,1.0453182],[100.5265789,1.0500475],[100.5147809,1.0613984],[100.4949673,1.0781013],[100.4491243,1.1414365],[100.4408367,1.1420263],[100.435049,1.140691],[100.4247535,1.0813845],[100.4248436,1.0488734],[100.4248436,1.0280873],[100.4183745,1.0206741],[100.4317175,1.0164612],[100.4443583,1.0185676],[100.4520832,1.0148228],[100.4584036,1.0005456],[100.467533,0.988843],[100.4844233,0.9791913],[100.4793435,0.9690545],[100.4793435,0.9606261],[100.4619366,0.9476705],[100.4537417,0.948841],[100.4400835,0.9439638],[100.4401885,0.9386841],[100.4426192,0.9284765],[100.4460222,0.9219145],[100.4474914,0.9118315],[100.4436829,0.9035093],[100.4493949,0.8956536],[100.449876,0.887565],[100.477342,0.889625],[100.497255,0.907475],[100.511674,0.901296],[100.5370982,0.8647657]]]},"id":14},{"type":"Feature","properties":{"NAMOBJ":"Rambah Samo","WADMKC":"Rambah Samo","WADMKK":"Rokan Hulu","KDCBPS":null,"KDCPUM":"14.06.08"},"geometry":{"type":"Polygon","coordinates":[[[100.3843005,0.9135707],[100.3626386,0.8832329],[100.342739,0.846659],[100.342739,0.846659],[100.347805,0.8413303],[100.3506301,0.8356806],[100.3578391,0.8287646],[100.3617358,0.8236994],[100.3618529,0.8170749],[100.3386357,0.7803759],[100.3200814,0.7508696],[100.3410116,0.729805],[100.3516601,0.7196173],[100.3568662,0.7142712],[100.3584143,0.7100098],[100.3618773,0.7095061],[100.3671503,0.7141683],[100.3743492,0.7150938],[100.3780515,0.7220865],[100.3832965,0.7213667],[100.3892645,0.7157108],[100.3930696,0.71314],[100.4000629,0.7104663],[100.4110669,0.7060444],[100.4205283,0.7065586],[100.4255676,0.7102606],[100.4194999,0.7229092],[100.4340901,0.7356827],[100.4435776,0.7405573],[100.4490998,0.7435704],[100.4482233,0.7441181],[100.4505115,0.7477695],[100.4559842,0.7566734],[100.475427,0.7508255],[100.5263523,0.7618343],[100.53655160320731,0.7977055223748972],[100.5438127,0.8296301],[100.5458803,0.8402406],[100.5431297,0.8522999],[100.5395141,0.8601947],[100.512026,0.9007483],[100.4974263,0.9075183],[100.4787514,0.8904344],[100.4497882,0.8871931],[100.4497882,0.8955655],[100.4443022,0.9036492],[100.4469008,0.9120215],[100.4462556,0.9217997],[100.442281,0.9279001],[100.4264866,0.9245572],[100.4122523,0.9203939],[100.3843005,0.9135707]]]}}]}